56P/Slaughter-Burnham,e,8.1604,345.9914,43.9864,5.069988,0.0863363,0.50736621,149.1758,04/12.0/2021,2000,g  8.5,6.0
# From MPC 98565
57P/du Toit-Neujmin-Delporte,e,2.8509,188.7789,115.2579,3.445957,0.1540775,0.50081967,330.9650,04/12.0/2021,2000,g 12.5,6.0
# From MPEC 2020-SI8
58P/Jackson-Neujmin,e,13.1104,159.0759,200.4520,4.081268,0.1195395,0.66249331,38.1993,04/12.0/2021,2000,g 15.5,6.0
# From MPEC 2021-F20
59P/Kearns-Kwee,e,9.3413,312.8344,127.5521,4.487670,0.1036747,0.47505270,97.3066,04/12.0/2021,2000,g  7.0,6.0
# From MPEC 2021-F20
60P/Tsuchinshan,e,3.5925,267.5618,216.9310,3.522286,0.1490964,0.53527559,127.3194,04/12.0/2021,2000,g 11.5,6.0
# From MPEC 2015-Q71
61P/Shajn-Schaldach,e,5.9988,162.9797,221.8465,3.686292,0.1392578,0.42388831,281.9664,04/12.0/2021,2000,g  6.0,10.0
# From MPC109147
62P/Tsuchinshan,e,4.7819,69.7964,46.7159,3.349562,0.1607763,0.63102974,201.7098,04/12.0/2021,2000,g  8.0,10.0
# From MPC 84320
63P/Wild,e,19.7294,358.0186,169.1097,5.606301,0.0742488,0.64883279,217.5585,04/12.0/2021,2000,g 10.5,6.0
# From MPC111774
64P/Swift-Gehrels,e,8.9502,299.9978,97.0733,4.453899,0.1048561,0.68787877,93.3081,04/12.0/2021,2000,g  9.5,12.0
# From MPEC 2021-FB5
65P/Gunn,e,9.1800,62.0200,213.8645,3.885617,0.1286809,0.24951749,163.7105,04/12.0/2021,2000,g  5.0,6.0
# From MPC109147
66P/du Toit,e,18.6513,21.8381,257.3663,6.065966,0.0659712,0.78678386,69.8543,04/12.0/2021,2000,g  9.0,4.0
# From MPC 89011
67P/Churyumov-Gerasimenko,e,3.8709,36.3518,22.1037,3.458481,0.1532414,0.64998133,328.7356,04/12.0/2021,2000,g 11.0,4.0
# From MPC 75716
68P/Klemola,e,11.1101,175.0656,153.1244,4.952829,0.0894178,0.63764533,46.4859,04/12.0/2021,2000,g 10.0,4.0
# From MPC114607
69P/Taylor,e,22.0336,104.8271,343.4577,3.887732,0.1285759,0.41307848,97.1863,04/12.0/2021,2000,g  9.5,12.0
# From MPEC 2021-BE3
70P/Kojima,e,6.5982,119.2685,1.8421,3.676566,0.1398108,0.45357914,331.3169,04/12.0/2021,2000,g 11.0,6.0
# From MPC107051
71P/Clark,e,9.4385,59.4208,209.0450,3.138322,0.1772792,0.49399670,244.8598,04/12.0/2021,2000,g  9.8,6.0
# From MPC 89011
72P/Denning-Fujikawa,e,10.9399,26.6908,346.6849,4.310950,0.1101145,0.81835265,272.4557,04/12.0/2021,2000,g 17.5,10.0
# From MPC106348
73P/Schwassmann-Wachmann,e,11.2298,69.6337,199.4637,3.092949,0.1811945,0.68555612,269.2909,04/12.0/2021,2000,g 11.5,6.0
# From MPC106348
73P-T/Schwassmann-Wachmann,e,11.2319,69.6363,199.4451,3.094511,0.1810573,0.68575876,269.0881,04/12.0/2021,2000,g 11.5,6.0
# From MPEC 2021-BE3
74P/Smirnova-Chernykh,e,6.2776,74.0608,102.0046,4.292674,0.1108185,0.15101086,121.3337,04/12.0/2021,2000,g  5.0,6.0
# From MPEC 2020-SI8
76P/West-Kohoutek-Ikemura,e,30.4588,84.1177,359.9755,3.472880,0.1522893,0.53811537,81.3130,04/12.0/2021,2000,g  8.0,12.0
# From MPC100283
77P/Longmore,e,24.3196,14.7843,196.8431,3.621601,0.1430056,0.35208669,256.8448,04/12.0/2021,2000,g  7.0,8.0
# From MPEC 2021-FB5
78P/Gehrels,e,6.2507,210.5218,192.6432,3.739079,0.1363193,0.46201361,100.9005,04/12.0/2021,2000,g  5.5,8.0
# From MPC 94675
79P/du Toit-Hartley,e,3.1479,280.5312,281.8031,2.942876,0.1952298,0.61885419,183.9389,04/12.0/2021,2000,g 16.0,4.0
# From MPEC 2014-P41
80P/Peters-Hartley,e,29.9327,259.8178,339.2528,4.024326,0.1220856,0.59885283,286.0432,04/12.0/2021,2000,g  9.0,4.0
# From MPC105241
81P/Wild,e,3.2368,136.0984,41.6870,3.451428,0.1537113,0.53704231,265.8096,04/12.0/2021,2000,g  7.0,6.0
# From MPEC 2020-L06
82P/Gehrels,e,1.1286,239.3092,226.7070,4.135572,0.1171927,0.12169144,119.7546,04/12.0/2021,2000,g  5.0,8.0
# From MPEC 2021-FB5
84P/Giclas,e,7.5520,108.1744,281.5715,3.548928,0.1474207,0.51568609,46.0175,04/12.0/2021,2000,g  9.5,8.0
# From MPC109147
86P/Wild,e,15.4740,72.3622,179.3703,3.602717,0.1441315,0.37246952,316.5441,04/12.0/2021,2000,g 11.0,6.0
# From MPEC 2020-SI8
87P/Bus,e,2.6043,181.8112,25.1103,3.442807,0.1542890,0.38987833,52.0455,04/12.0/2021,2000,g  7.2,10.0
# From MPEC 2019-JE2
88P/Howell,e,4.3837,56.6799,235.9013,3.105062,0.1801353,0.56424974,35.5598,04/12.0/2021,2000,g 11.0,6.0
# From MPC100283
89P/Russell,e,12.0694,41.3861,250.3317,3.753960,0.1355094,0.40861378,213.8016,04/12.0/2021,2000,g 11.5,6.0
# From MPC107051
90P/Gehrels,e,9.6458,13.2064,29.0714,6.053087,0.0661818,0.51003332,92.1738,04/12.0/2021,2000,g  8.5,6.0
# From MPC105241
91P/Russell,e,14.0889,247.8235,354.8394,3.892577,0.1283359,0.33096362,19.6970,04/12.0/2021,2000,g  7.5,6.0
# From MPEC 2014-J58
92P/Sanguin,e,19.4936,181.3714,163.7440,5.344533,0.0797700,0.66085591,177.9543,04/12.0/2021,2000,g 12.0,6.0
# From NK 2707
93P/Lovas,e,12.2033,339.6442,74.8185,4.383079,0.1074076,0.61248245,161.4451,04/12.0/2021,2000,g  9.0,4.0
# From MPEC 2020-W26
94P/Russell,e,6.1879,70.8592,92.4674,3.507312,0.1500522,0.36484655,244.5328,04/12.0/2021,2000,g  9.0,6.0
# From MPC 75717
95P/Chiron,e,6.9317,209.2691,339.7328,13.69832,0.0194403,0.37748784,179.0990,04/12.0/2021,2000,g  6.5,2.0
# From MPEC 2017-T14
96P/Machholz,e,57.6304,94.0147,14.7327,3.028003,0.1870552,0.96159824,236.6734,04/12.0/2021,2000,g  9.0,4.0
# From MPC 77020
97P/Metcalf-Brewington,e,17.9429,184.0831,229.8675,4.766927,0.0946992,0.46067663,330.7213,04/12.0/2021,2000,g  5.5,6.0
# From MPEC 2013-H38
98P/Takamizawa,e,10.5610,114.7111,157.9135,3.800351,0.1330358,0.56242109,12.9152,04/12.0/2021,2000,g  9.0,8.0
# From MPEC 2021-FB5
99P/Kowal,e,4.3387,28.1082,174.9612,6.110323,0.0652541,0.22985385,336.1228,04/12.0/2021,2000,g  4.5,6.0
# From MPEC 2013-O31
100P/Hartley,e,25.5657,37.7026,181.9932,3.432241,0.1550021,0.41236324,284.6729,04/12.0/2021,2000,g  9.0,4.0
# From MPEC 2021-FB5
101P/Chernykh,e,5.0528,116.2293,277.7023,5.802541,0.0705142,0.59590844,32.1126,04/12.0/2021,2000,g 10.0,4.8
# From MPC 86232
102P/Shoemaker,e,25.8849,339.3661,20.5411,3.812804,0.1323846,0.45711029,10.5384,04/12.0/2021,2000,g  6.5,8.0
# From MPEC 2018-HA5
103P/Hartley,e,13.5999,219.7304,181.2843,3.476201,0.1520711,0.69318425,221.0189,04/12.0/2021,2000,g  8.5,8.0
# From MPC100283
104P/Kowal,e,5.7182,207.4471,227.0647,3.208392,0.1715035,0.66572660,312.9975,04/12.0/2021,2000,g 16.0,4.0
# From MPC109147
105P/Singer Brewster,e,9.1709,192.4136,46.4851,3.467212,0.1526629,0.40954590,149.0402,04/12.0/2021,2000,g 11.5,6.0
# From MPC 92276
106P/Schuster,e,19.5356,48.8907,353.6543,3.763398,0.1350000,0.59380812,342.6184,04/12.0/2021,2000,g 14.0,4.8
# From MPEC 2015-M77
107P/Wilson-Harrington,e,2.7986,266.7956,95.4007,2.625336,0.2317004,0.63152021,244.2145,04/12.0/2021,2000,g  9.0,4.0
# From MPC 89313
108P/Ciffreo,e,11.4366,50.2988,354.3960,3.739695,0.1362856,0.55602715,339.4131,04/12.0/2021,2000,g  8.0,12.0
# From  105, 420
109P/Swift-Tuttle,e,113.9904,139.0367,152.9048,26.13604,0.0073764,0.96290829,76.4038,04/12.0/2021,2000,g  4.0,6.0
# From MPEC 2020-W26
110P/Hartley,e,11.7073,287.5340,167.4551,3.601111,0.1442279,0.31806689,332.6916,04/12.0/2021,2000,g  1.0,12.0
# From MPC 75718
111P/Helin-Roman-Crockett,e,4.2271,89.7666,1.0114,4.146814,0.1167165,0.10590869,352.4398,04/12.0/2021,2000,g  5.0,8.0
# From MPC118097
112P/Urata-Niijima,e,24.1945,31.8375,21.4877,3.525777,0.1488750,0.58986071,63.8706,04/12.0/2021,2000,g 14.0,6.0
# From MPEC 2015-E14
113P/Spitaler,e,5.2977,306.7147,115.3253,3.701552,0.1383975,0.42146482,302.6069,04/12.0/2021,2000,g 13.5,4.0
# From MPEC 2021-BE3
114P/Wiseman-Skiff,e,18.2728,271.0525,172.7795,3.545590,0.1476289,0.55473438,67.0177,04/12.0/2021,2000,g 11.5,6.0
# From MPEC 2020-SI8
115P/Maury,e,11.6775,176.0099,120.9809,4.272816,0.1115919,0.51865214,28.6085,04/12.0/2021,2000,g 10.5,6.0
# From MPC106348
116P/Wild,e,3.6034,20.9869,173.3476,3.489616,0.1511951,0.37065295,290.2930,04/12.0/2021,2000,g  2.5,10.0
# From MPEC 2021-FB5
117P/Helin-Roman-Alu,e,8.7024,58.8443,222.8345,4.085015,0.1193750,0.25573034,306.1290,04/12.0/2021,2000,g  2.5,8.0
# From MPC 95735
118P/Shoemaker-Levy,e,10.0789,142.1154,314.2467,3.366158,0.1595888,0.45580639,266.0297,04/12.0/2021,2000,g 12.0,4.0
# From MPC 84628
119P/Parker-Hartley,e,7.4104,104.7232,321.6081,3.820450,0.1319873,0.39070983,295.9238,04/12.0/2021,2000,g  3.5,8.0
# From MPEC 2020-SI8
120P/Mueller,e,8.4900,358.6743,36.5551,3.961444,0.1250039,0.37450381,356.8583,04/12.0/2021,2000,g 12.0,4.0
# From MPEC 2020-SI8
121P/Shoemaker-Holt,e,20.1630,94.1298,11.3489,4.585086,0.1003882,0.18553974,279.0664,04/12.0/2021,2000,g  6.5,8.0
# From MPC 75718
122P/de Vico,e,84.8739,79.5483,13.0091,17.62759,0.0133173,0.96225688,124.4371,04/12.0/2021,2000,g  7.5,5.2
# From MPC114608
123P/West-Hartley,e,15.2979,46.2200,103.7699,3.872925,0.1293140,0.44742015,103.0331,04/12.0/2021,2000,g  4.0,10.0
# From MPEC 2020-SI8
124P/Mrkos,e,31.5171,0.3433,183.9412,3.319906,0.1629354,0.50350208,57.0305,04/12.0/2021,2000,g 13.5,2.8
# From MPEC 2015-M77
125P/Spacewatch,e,9.9866,153.1507,87.2390,3.125773,0.1783479,0.51274626,170.9428,04/12.0/2021,2000,g  9.0,4.0
# From MPC 66205
126P/IRAS,e,45.8676,357.8611,356.5200,5.640357,0.0735774,0.69624787,300.0819,04/12.0/2021,2000,g  9.0,4.0
# From MPC 84321
127P/Holt-Olmstead,e,14.2968,13.6379,6.4823,3.450982,0.1537411,0.35988245,285.2665,04/12.0/2021,2000,g 11.0,6.0
# From MPC 89014
128P/Shoemaker-Holt,e,4.3673,214.2968,210.3138,4.492442,0.1035095,0.32067820,160.8267,04/12.0/2021,2000,g  8.5,4.0
# From MPEC 2019-TG9
129P/Shoemaker-Levy,e,3.4424,184.8832,307.8681,4.283112,0.1111898,0.08400222,293.2324,04/12.0/2021,2000,g 11.0,4.0
# From MPC 78188
130P/McNaught-Hughes,e,6.0629,70.2295,246.0017,3.383825,0.1583406,0.46136720,186.1127,04/12.0/2021,2000,g 10.0,6.0
# From MPC102101
131P/Mueller,e,7.3550,214.1598,179.0277,3.680801,0.1395695,0.34387391,112.8715,04/12.0/2021,2000,g 11.0,4.0
# From MPEC 2020-HN5
132P/Helin-Roman-Alu,e,5.3808,174.0103,216.3461,3.888634,0.1285312,0.56502947,332.3489,04/12.0/2021,2000,g 11.0,6.0
# From MPC 94676
133P/Elst-Pizarro,e,1.3892,160.1102,131.8176,3.164589,0.1750766,0.15698041,163.3834,04/12.0/2021,2000,g 15.4,2.0
# From MPC 89012
134P/Kowal-Vavrova,e,4.3404,202.0744,18.8869,6.259943,0.0629287,0.58615855,158.5649,04/12.0/2021,2000,g 11.5,4.0
# From MPEC 2021-F20
